OBJECT_NAME,OBJECT_ID,EPOCH,MEAN_MOTION,ECCENTRICITY,INCLINATION,RA_OF_ASC_NODE,ARG_OF_PERICENTER,MEAN_ANOMALY,EPHEMERIS_TYPE,CLASSIFICATION_TYPE,NORAD_CAT_ID,ELEMENT_SET_NO,REV_AT_EPOCH,BSTAR,MEAN_MOTION_DOT,MEAN_MOTION_DDOT
STARLINK-34899,2025-189A,2026-07-19T17:06:58.300128,15.31710280,.0000988,53.1612,312.5375,111.0158,249.0949,0,U,65323,999,5133,.33172E-3,.9946E-4,0
STARLINK-34196,2025-189B,2026-07-19T16:54:00.692352,15.31711218,.0000944,53.1593,312.4985,85.2263,274.8846,0,U,65324,999,5128,.24273E-3,.7177E-4,0
STARLINK-34911,2025-189C,2026-07-19T11:33:10.662624,15.34397045,.00008196,53.1604,313.9585,102.9369,257.1725,0,U,65325,999,5129,.38098731E-3,.12516E-3,0
STARLINK-34902,2025-189D,2026-07-19T16:38:48.323904,15.34403924,.0001338,53.1598,313.1440,88.7898,271.3258,0,U,65326,999,5132,.34605E-3,.11335E-3,0
STARLINK-34880,2025-189E,2026-07-19T15:38:20.055264,15.34403660,.0001038,53.1604,313.5939,98.5003,261.6117,0,U,65327,999,5131,.43257E-3,.14268E-3,0
STARLINK-34885,2025-189F,2026-07-19T15:46:27.513696,15.31716997,.0001046,53.1617,312.9184,106.4693,253.6423,0,U,65328,999,5126,.48312E-3,.14664E-3,0
STARLINK-34908,2025-189G,2026-07-19T16:29:43.355904,15.34412301,.0001376,53.1572,313.1012,82.9242,277.1917,0,U,65329,999,5132,.45059E-3,.14884E-3,0
STARLINK-34864,2025-189H,2026-07-19T11:38:40.120512,15.31722009,.00021666,53.1582,313.9726,109.9325,250.1910,0,U,65330,999,5129,.56094188E-3,.17094E-3,0
STARLINK-34918,2025-189J,2026-07-19T15:26:17.672640,15.31709236,.0001139,53.1592,312.8240,104.2598,255.8530,0,U,65331,999,5126,.24355E-3,.7202E-4,0
STARLINK-33890,2025-189K,2026-07-18T17:38:03.051456,15.31716334,.00009722,53.1599,317.1053,70.8231,289.2875,0,U,65332,999,4998,.46875063E-3,.14216E-3,0
STARLINK-34602,2025-189L,2026-07-19T17:20:53.997216,15.31709771,.0001182,53.1604,312.6126,80.7363,279.3772,0,U,65333,999,5133,.33133E-3,.9933E-4,0
STARLINK-34878,2025-189M,2026-07-19T11:45:23.281056,15.31706708,.00017027,53.1610,314.0068,85.7753,274.3443,0,U,65334,999,5129,.37148416E-3,.11182E-3,0
STARLINK-34874,2025-189N,2026-07-19T15:41:21.791616,15.34396856,.0000995,53.1602,313.5978,81.7566,278.3549,0,U,65335,999,5131,.54701E-3,.18148E-3,0
STARLINK-34835,2025-189P,2026-07-19T13:46:21.604224,15.34402311,.0001864,53.1603,313.8178,91.0775,269.0442,0,U,65336,999,5130,.20129E-3,.6431E-4,0
STARLINK-34854,2025-189Q,2026-07-19T17:47:47.207040,15.31704169,.0001445,53.1609,312.7320,86.2301,273.8865,0,U,65337,999,5127,.18923E-3,.5512E-4,0
STARLINK-34751,2025-189R,2026-07-19T11:11:46.793184,15.31704428,.0001074,53.1551,313.8551,94.0356,266.0769,0,U,65338,999,5129,.2596479E-3,.7702E-4,0
STARLINK-34777,2025-189S,2026-07-19T11:18:30.070368,15.31709950,.00015004,53.1575,313.8876,116.2581,243.8575,0,U,65339,999,5130,.32159075E-3,.963E-4,0
STARLINK-35020,2025-189T,2026-07-19T16:40:05.498112,15.31711343,.0000954,53.1585,312.4364,80.2274,279.8835,0,U,65340,999,5128,.26753E-3,.7949E-4,0
STARLINK-35016,2025-189U,2026-07-19T14:46:49.503936,15.34402749,.0001231,53.1549,313.3633,88.7486,271.3658,0,U,65341,999,5126,.31285E-3,.10209E-3,0
STARLINK-35092,2025-189V,2026-07-19T12:04:56.052192,15.31710945,.0001805,53.1590,313.3794,90.0282,270.0927,0,U,65342,999,5121,.37757E-3,.11373E-3,0
STARLINK-34838,2025-189W,2026-07-19T12:03:28.543680,15.34403141,.00010047,53.1603,314.0741,91.4938,268.6180,0,U,65343,999,5130,.55646947E-3,.18473E-3,0
STARLINK-35088,2025-189X,2026-07-19T11:09:03.976704,15.34403449,.0001376,53.1586,314.5543,105.9692,254.1462,0,U,65344,999,5129,.38471174E-3,.12645E-3,0
STARLINK-34831,2025-189Y,2026-07-19T11:25:13.170432,15.31708735,.0001182,53.1601,313.9139,100.8621,259.2513,0,U,65345,999,5130,.30201754E-3,.9021E-4,0
STARLINK-34873,2025-189Z,2026-07-19T11:36:12.569184,15.34401538,.00011611,53.1579,313.9611,81.7056,278.4078,0,U,65346,999,5130,.31002187E-3,.10113E-3,0
STARLINK-34881,2025-189AA,2026-07-19T14:19:13.020672,15.31713850,.0000521,53.1587,313.2494,59.0004,301.1049,0,U,65347,999,5131,.28905E-3,.8619E-4,0
STARLINK-34859,2025-189AB,2026-07-19T16:41:50.004096,15.34400800,.0001233,53.1598,313.1537,78.7063,281.4079,0,U,65348,999,5132,.28934E-3,.9412E-4,0
STARLINK-34895,2025-189AC,2026-07-19T15:39:44.342784,15.31714769,.0000874,53.1603,312.8865,79.1901,280.9199,0,U,65349,999,5128,.40693E-3,.12289E-3,0
STARLINK-34892,2025-189AD,2026-07-19T07:29:46.094784,15.31712342,.00015519,53.1581,314.3166,82.9919,277.1259,0,U,65350,999,5122,.19435555E-3,.5673E-4,0
STARLINK-34244,2025-190A,2026-07-19T11:45:37.410912,15.34393725,.00009635,53.1572,273.9351,81.1682,278.9430,0,U,65351,999,4996,.2478942E-3,.8007E-4,0
STARLINK-34716,2025-190B,2026-07-19T20:00:01.999008,15.34407013,.0000651,53.1599,274.3482,99.5674,41.5929,0,U,65352,999,585,-.82843E-3,-.28267E-3,0
