STARLINK-34899          
1 65323U 25189A   26200.71317477  .00009946  00000+0  33172-3 0  9997
2 65323  53.1612 312.5375 0000988 111.0158 249.0949 15.31710280 51334
STARLINK-34196          
1 65324U 25189B   26200.70417468  .00007177  00000+0  24273-3 0  9994
2 65324  53.1593 312.4985 0000944  85.2263 274.8846 15.31711218 51288
STARLINK-34911          
1 65325U 25189C   26200.48137341  .00012516  00000+0  38099-3 0  9993
2 65325  53.1604 313.9585 0000819 102.9369 257.1725 15.34397045 51291
STARLINK-34902          
1 65326U 25189D   26200.69361486  .00011335  00000+0  34605-3 0  9993
2 65326  53.1598 313.1440 0001338  88.7898 271.3258 15.34403924 51328
STARLINK-34880          
1 65327U 25189E   26200.65162101  .00014268  00000+0  43257-3 0  9994
2 65327  53.1604 313.5939 0001038  98.5003 261.6117 15.34403660 51310
STARLINK-34885          
1 65328U 25189F   26200.65726289  .00014664  00000+0  48312-3 0  9995
2 65328  53.1617 312.9184 0001046 106.4693 253.6423 15.31716997 51265
STARLINK-34908          
1 65329U 25189G   26200.68730736  .00014884  00000+0  45059-3 0  9990
2 65329  53.1572 313.1012 0001376  82.9242 277.1917 15.34412301 51324
STARLINK-34864          
1 65330U 25189H   26200.48518658  .00017094  00000+0  56094-3 0  9994
2 65330  53.1582 313.9726 0002166 109.9325 250.1910 15.31722009 51293
STARLINK-34918          
1 65331U 25189J   26200.64326010  .00007202  00000+0  24355-3 0  9997
2 65331  53.1592 312.8240 0001139 104.2598 255.8530 15.31709236 51267
STARLINK-33890          
1 65332U 25189K   26199.73475754  .00014216  00000+0  46875-3 0  9999
2 65332  53.1599 317.1053 0000972  70.8231 289.2875 15.31716334 49987
STARLINK-34602          
1 65333U 25189L   26200.72284719  .00009933  00000+0  33133-3 0  9994
2 65333  53.1604 312.6126 0001182  80.7363 279.3772 15.31709771 51331
STARLINK-34878          
1 65334U 25189M   26200.48985279  .00011182  00000+0  37148-3 0  9996
2 65334  53.1610 314.0068 0001702  85.7753 274.3443 15.31706708 51298
STARLINK-34874          
1 65335U 25189N   26200.65372444  .00018148  00000+0  54701-3 0  9993
2 65335  53.1602 313.5978 0000995  81.7566 278.3549 15.34396856 51311
STARLINK-34835          
1 65336U 25189P   26200.57386116  .00006431  00000+0  20129-3 0  9995
2 65336  53.1603 313.8178 0001864  91.0775 269.0442 15.34402311 51302
STARLINK-34854          
1 65337U 25189Q   26200.74151860  .00005512  00000+0  18923-3 0  9999
2 65337  53.1609 312.7320 0001445  86.2301 273.8865 15.31704169 51273
STARLINK-34751          
1 65338U 25189R   26200.46651381  .00007702  00000+0  25965-3 0  9999
2 65338  53.1551 313.8551 0001074  94.0356 266.0769 15.31704428 51290
STARLINK-34777          
1 65339U 25189S   26200.47118137  .00009630  00000+0  32159-3 0  9993
2 65339  53.1575 313.8876 0001500 116.2581 243.8575 15.31709950 51303
STARLINK-35020          
1 65340U 25189T   26200.69450808  .00007949  00000+0  26753-3 0  9997
2 65340  53.1585 312.4364 0000954  80.2274 279.8835 15.31711343 51288
STARLINK-35016          
1 65341U 25189U   26200.61585074  .00010209  00000+0  31285-3 0  9993
2 65341  53.1549 313.3633 0001231  88.7486 271.3658 15.34402749 51263
STARLINK-35092          
1 65342U 25189V   26200.50342653  .00011373  00000+0  37757-3 0  9999
2 65342  53.1590 313.3794 0001805  90.0282 270.0927 15.31710945 51212
STARLINK-34838          
1 65343U 25189W   26200.50241370  .00018473  00000+0  55647-3 0  9990
2 65343  53.1603 314.0741 0001004  91.4938 268.6180 15.34403141 51306
STARLINK-35088          
1 65344U 25189X   26200.46462936  .00012645  00000+0  38471-3 0  9990
2 65344  53.1586 314.5543 0001376 105.9692 254.1462 15.34403449 51294
STARLINK-34831          
1 65345U 25189Y   26200.47584688  .00009021  00000+0  30202-3 0  9999
2 65345  53.1601 313.9139 0001182 100.8621 259.2513 15.31708735 51306
STARLINK-34873          
1 65346U 25189Z   26200.48347881  .00010113  00000+0  31002-3 0  9996
2 65346  53.1579 313.9611 0001161  81.7056 278.4078 15.34401538 51305
STARLINK-34881          
1 65347U 25189AA  26200.59667848  .00008619  00000+0  28905-3 0  9993
2 65347  53.1587 313.2494 0000521  59.0004 301.1049 15.31713850 51310
STARLINK-34859          
1 65348U 25189AB  26200.69571764  .00009412  00000+0  28934-3 0  9990
2 65348  53.1598 313.1537 0001233  78.7063 281.4079 15.34400800 51329
STARLINK-34895          
1 65349U 25189AC  26200.65259656  .00012289  00000+0  40693-3 0  9992
2 65349  53.1603 312.8865 0000874  79.1901 280.9199 15.31714769 51284
STARLINK-34892          
1 65350U 25189AD  26200.31233906  .00005673  00000+0  19436-3 0  9997
2 65350  53.1581 314.3166 0001551  82.9919 277.1259 15.31712342 51220
STARLINK-34244          
1 65351U 25190A   26200.49001633  .00008007  00000+0  24789-3 0  9990
2 65351  53.1572 273.9351 0000963  81.1682 278.9430 15.34393725 49962
STARLINK-34716          
1 65352U 25190B   26200.83335647 -.00028267  00000+0 -82843-3 0  9991
2 65352  53.1599 274.3482 0000651  99.5674  41.5929 15.34407013  5853
